RS-44 & BREEZE-KM R/B   
1 44909U 19096E   24133.93070794  .00000017  00000+0  16381-4 0  9993
2 44909  82.5176 128.2034 0218364 133.4183 228.5326 12.79729481204468
BY70-2                  
1 45857U 20042B   24134.20522613  .00131867  00000+0  56935-2 0  9997
2 45857  97.9066 225.6823 0006356 288.7286  71.3258 15.21907571209215
SALSAT                  
1 46495U 20068K   24133.82280316  .00011657  00000+0  67039-3 0  9994
2 46495  97.8148  92.2471 0016106  76.8841 283.4185 15.12528515198969
UVSQ-SAT                
1 47438U 21006AB  24133.89619724  .00066045  00000+0  14394-2 0  9997
2 47438  97.3289 193.9948 0004735 344.9979  15.1128 15.44016870183289
LEDSAT                  
1 49069U 21073D   24134.19529603  .00021825  00000+0  91134-3 0  9998
2 49069  97.4385 205.5894 0020277  51.2073 309.0971 15.23469202151128
XW-3 (CAS-9)            
1 50466U 21131B   24134.23554494  .00002429  00000+0  79180-3 0  9993
2 50466  98.5273 219.4703 0003484 216.0139 144.0815 14.39576807124970
TEVEL-3                 
1 50988U 22002E   24134.16804233  .00139962  00000+0  18904-2 0  9990
2 50988  97.3796 208.5216 0004492 162.9500 197.1907 15.57276853129587
TEVEL-8                 
1 50989U 22002F   24134.20617764  .00139578  00000+0  18952-2 0  9993
2 50989  97.3822 208.6517 0004573 164.2761 195.8637 15.57135301129584
TEVEL-5                 
1 50998U 22002Q   24134.15292537  .00152101  00000+0  17448-2 0  9990
2 50998  97.3789 209.6864 0004133 164.4623 195.6762 15.61565356129661
TEVEL-6                 
1 50999U 22002R   24134.15825927  .00151084  00000+0  17451-2 0  9999
2 50999  97.3781 209.6608 0004072 164.8486 195.2895 15.61389446129660
TEVEL-1                 
1 51013U 22002AF  24134.19508983  .00138997  00000+0  18895-2 0  9992
2 51013  97.3790 208.4152 0004267 160.2197 199.9224 15.57107385129587
TEVEL-7                 
1 51062U 22002CG  24134.19566449  .00140102  00000+0  18917-2 0  9993
2 51062  97.3808 208.6155 0004225 160.2685 199.8734 15.57285852129583
TEVEL-4                 
1 51063U 22002CH  24134.16675873  .00140928  00000+0  19324-2 0  9992
2 51063  97.3807 208.4933 0004353 158.4615 201.6824 15.56866474129574
TEVEL-2                 
1 51069U 22002CP  24134.16613846  .00140693  00000+0  18971-2 0  9996
2 51069  97.3793 208.4874 0004350 162.4478 197.6928 15.57319853129582
GREENCUBE               
1 53106U 22080B   24129.12370289 -.00000003  00000+0  00000+0 0  9999
2 53106  70.1412 206.4364 0007827 115.6229 244.5240  6.42557310 42692
KUZBASS-300 (RS34S)     
1 53375U 22096F   24134.02381212  .01205802  86738-3  15906-2 0  9991
2 53375  97.3763  55.1492 0007762 158.0577 202.1039 16.06974416 99000
MIET-AIS (RS28S)        
1 53377U 22096H   24134.03650526  .00306084  00000+0  14092-2 0  9993
2 53377  97.3850  53.6723 0006835 123.7076 236.4846 15.82768768 98900
KAI-1 (RS26S)           
1 53378U 22096J   24134.20415233  .00109758  00000+0  11988-2 0  9997
2 53378  97.3967  51.2958 0005162 105.9105 254.2723 15.62971233 98757
ISOI (RS19S)            
1 53381U 22096M   24134.02805113  .00326075  00000+0  12981-2 0  9998
2 53381  97.3876  54.6060 0006281 128.9648 231.2183 15.85805550 98962
SIREN (RS30S)           
1 53384U 22096Q   24134.04970680  .00178965  00000+0  13011-2 0  9993
2 53384  97.3911  52.9389 0004513 121.3423 238.8283 15.72809484 98852
CAS-5A (FO-118)         
1 54684U 22167C   24134.19124143  .00034592  00000+0  12655-2 0  9997
2 54684  97.6022 278.2541 0010219 263.3917  96.6159 15.27930646 78956
STRATOSAT-TK 1 (RS52S)  
1 57167U 23091B   24134.20735268  .00020349  00000+0  12125-2 0  9998
2 57167  97.6141 187.3987 0014600 233.6140 126.3744 15.11129751 48270
UMKA 1 (RS40S)          
1 57172U 23091G   24134.21484385  .00010002  00000+0  66903-3 0  9995
2 57172  97.6144 186.6210 0015719 237.1962 122.7752 15.07048515 48220
CUBESX-HSE 3 (RS42S)    
1 57178U 23091N   24134.19992651  .00011720  00000+0  75894-3 0  9995
2 57178  97.6177 186.9474 0016312 230.3702 129.6087 15.08195389 48235
MONITOR-4 (RS57S)       
1 57182U 23091S   24134.17716408  .00010655  00000+0  69821-3 0  9991
2 57182  97.6156 186.7754 0016876 232.6323 127.3368 15.07775684 48222
MONITOR-2 (RS39S)       
1 57184U 23091U   24134.18187485  .00008185  00000+0  54624-3 0  9991
2 57184  97.6163 186.9437 0013326 225.2856 134.7287 15.07220521 48236
SVYATOBOR 1 (RS60S)     
1 57187U 23091X   24134.17167295  .00011053  00000+0  70955-3 0  9993
2 57187  97.6165 187.2693 0013067 222.3503 137.6718 15.08569159 48255
VIZARD-METEO (RS38S)    
1 57189U 23091Z   24134.15772916  .00013459  00000+0  83457-3 0  9998
2 57189  97.6166 187.5640 0012030 218.8506 141.1860 15.09800799 48274
NANOZOND 1 (RS49S)      
1 57190U 23091AA  24134.14793819  .00019678  00000+0  11474-2 0  9992
2 57190  97.6141 187.9303 0010388 221.5387 138.5055 15.11964824 48304
POLYTECH-UNIVERSE 3 (R*)
1 57191U 23091AB  24134.18467372  .00007575  00000+0  50612-3 0  9990
2 57191  97.6131 186.6507 0018377 244.5939 115.3386 15.07140400 48222
UTMN 2 (RS27S)          
1 57203U 23091AP  24134.20430774  .00011960  00000+0  75082-3 0  9994
2 57203  97.6166 187.5002 0012195 218.3017 141.7347 15.09378927 48276
ARCCUBE 1 (RS25S)       
1 57205U 23091AR  24134.14893666  .00019368  00000+0  11014-2 0  9996
2 57205  97.6112 187.9973 0010565 222.9872 137.0534 15.12869362 48312
KUZGTU 1 (RS47S)        
1 57217U 23091AV  24134.20552212  .00011604  00000+0  75386-3 0  9993
2 57217  97.6154 186.8373 0016208 231.9284 128.0482 15.08078761 48233
HADES-D (SO-121)        
1 58567U 23174CY  24133.82509998  .00060402  00000+0  23351-2 0  9998
2 58567  97.4555 209.5371 0010800 353.9921   6.1186 15.25951116 28385
CUTE-1 (CO-55)          
1 27844U 03031E   24133.72895777  .00001465  00000+0  66697-3 0  9999
2 27844  98.6777 141.2530 0008566 244.3707 115.6587 14.23220171 82746
CUBESAT XI-IV (CO-57)   
1 27848U 03031J   24134.00087155  .00001217  00000+0  56324-3 0  9999
2 27848  98.6807 141.7856 0008367 261.5770  98.4459 14.22668353 82585
CUBESAT XI-V            
1 28895U 05043F   24133.65205883  .00006157  00000+0  10921-2 0  9997
2 28895  98.1973 269.4440 0016931 109.3649 250.9387 14.67506669989248
CUTE-1.7+APD II (CO-65) 
1 32785U 08021C   24133.51300313  .00009117  00000+0  81087-3 0  9999
2 32785  97.7527  99.1568 0013427  87.1995 273.0763 14.96244168870141
AAUSAT-II               
1 32788U 08021F   24133.87962051  .00029055  00000+0  15236-2 0  9999
2 32788  97.5945 114.0636 0002945 318.1478  41.9528 15.15714385872974
SEEDS II (CO-66)        
1 32791U 08021J   24133.52842555  .00014901  00000+0  11092-2 0  9991
2 32791  97.6901 104.9229 0007414  75.2035 285.0011 15.03019013871164
SWISSCUBE               
1 35932U 09051B   24133.91399257  .00004880  00000+0  10501-2 0  9993
2 35932  98.4752  16.5164 0008658  70.6803 289.5331 14.58939572777413
BEESAT-1                
1 35933U 09051C   24133.91245302  .00004639  00000+0  10045-2 0  9990
2 35933  98.4679  17.4695 0006997  81.6200 278.5791 14.58689846777568
ITUPSAT1                
1 35935U 09051E   24133.90193202  .00004304  00000+0  95363-3 0  9998
2 35935  98.4779  17.2622 0009247  86.7125 273.5131 14.57654424777120
TISAT 1                 
1 36799U 10035E   24134.17513802  .00014257  00000+0  10973-2 0  9994
2 36799  98.0918  22.1004 0004895 355.7880   4.3301 15.01783290752003
M-CUBED & EXP-1 PRIME   
1 37855U 11061F   24134.18812730  .00232047  00000+0  17750-2 0  9990
2 37855 101.6892 297.8311 0041596  83.7104 276.8877 15.70259964688001
AEROCUBE 4.5A           
1 38767U 12048K   24134.19680081  .00024241  00000+0  13481-2 0  9994
2 38767  64.6616  66.5996 0106371  30.7478 329.9814 15.08875152255189
AEROCUBE 4.5B           
1 38768U 12048L   24133.93759765  .00042607  00000+0  16298-2 0  9997
2 38768  64.6574 355.3464 0086152  19.1395 341.2933 15.22892647256055
STRAND-1                
1 39090U 13009E   24133.53373592  .00001423  00000+0  50384-3 0  9996
2 39090  98.3823 322.8034 0008935   7.4316 352.7001 14.36031347587127
BRITE-AUSTRIA           
1 39091U 13009F   24133.78197332  .00000940  00000+0  33944-3 0  9996
2 39091  98.3864 322.3131 0010548  12.4307 347.7137 14.35778855587186
NEE-01 PEGASO           
1 39151U 13018B   24134.12297467  .00006277  00000+0  73217-3 0  9998
2 39151  98.0318 250.9060 0015873 150.9915 209.2185 14.85465486596778
ESTCUBE 1               
1 39161U 13021C   24134.16483835  .00004485  00000+0  65524-3 0  9994
2 39161  97.8289 201.6976 0008409 352.8899   7.2190 14.76185180591961
POPACS 1                
1 39268U 13055D   24133.59232353  .00044941  00000+0  81404-3 0  9998
2 39268  80.9836 191.9988 0420262 206.8109 151.0831 14.89053934555236
POPACS 2                
1 39269U 13055E   24133.82888079  .00022259  00000+0  51255-3 0  9996
2 39269  81.0015 277.7433 0555884  70.7994 295.2483 14.55860577550450
POPACS 3                
1 39270U 13055F   24133.95226209  .00015473  00000+0  43017-3 0  9990
2 39270  81.0087 327.1437 0631335 209.1807 147.2704 14.36001952527901
ZACUBE-1 (TSHEPISOSAT)  
1 39417U 13066B   24133.84088832  .00009378  00000+0  98427-3 0  9993
2 39417  97.7326  90.6201 0048936 277.8268  81.7396 14.88825409566323
WNISAT-1                
1 39423U 13066H   24134.09061947  .00003398  00000+0  65360-3 0  9992
2 39423  97.6728 331.2602 0171599 119.2874 242.5598 14.55155022555542
TRITON-1                
1 39427U 13066M   24134.15563302  .00005193  00000+0  73710-3 0  9998
2 39427  97.8427  53.2795 0102771 194.0723 165.7618 14.73778130561242
DELFI-N3XT              
1 39428U 13066N   24133.31632605  .00012537  00000+0  16172-2 0  9997
2 39428  97.8393  52.6135 0101113 203.8997 155.7503 14.77564714560793
